[{"OBJECT_NAME":"IUS R/B(2)","OBJECT_ID":"1991-054D","EPOCH":"2026-03-14T04:43:53.175936","MEAN_MOTION":1.00376418,"ECCENTRICITY":0.0036977,"INCLINATION":13.855,"RA_OF_ASC_NODE":333.7289,"ARG_OF_PERICENTER":345.0119,"MEAN_ANOMALY":210.0057,"EPHEMERIS_TYPE":0,"CLASSIFICATION_TYPE":"U","NORAD_CAT_ID":21641,"ELEMENT_SET_NO":999,"REV_AT_EPOCH":4641,"BSTAR":0,"MEAN_MOTION_DOT":-2.71e-6,"MEAN_MOTION_DDOT":0},{"OBJECT_NAME":"COSMOS 2155","OBJECT_ID":"1991-064A","EPOCH":"2026-03-14T07:51:20.200032","MEAN_MOTION":1.00171098,"ECCENTRICITY":0.0002725,"INCLINATION":13.1987,"RA_OF_ASC_NODE":339.9562,"ARG_OF_PERICENTER":269.6363,"MEAN_ANOMALY":262.433,"EPHEMERIS_TYPE":0,"CLASSIFICATION_TYPE":"U","NORAD_CAT_ID":21702,"ELEMENT_SET_NO":999,"REV_AT_EPOCH":12638,"BSTAR":0,"MEAN_MOTION_DOT":8.8e-7,"MEAN_MOTION_DDOT":0},{"OBJECT_NAME":"SL-12 R/B(2)","OBJECT_ID":"1991-064B","EPOCH":"2026-03-14T14:17:08.927808","MEAN_MOTION":0.99898028,"ECCENTRICITY":0.000328,"INCLINATION":13.4009,"RA_OF_ASC_NODE":340.6171,"ARG_OF_PERICENTER":2.2755,"MEAN_ANOMALY":178.8427,"EPHEMERIS_TYPE":0,"CLASSIFICATION_TYPE":"U","NORAD_CAT_ID":21703,"ELEMENT_SET_NO":999,"REV_AT_EPOCH":11920,"BSTAR":0,"MEAN_MOTION_DOT":-3.46e-6,"MEAN_MOTION_DDOT":0},{"OBJECT_NAME":"SL-12 R/B(2)","OBJECT_ID":"1991-074D","EPOCH":"2026-03-14T20:39:20.705184","MEAN_MOTION":0.99703682,"ECCENTRICITY":0.00019997,"INCLINATION":13.5185,"RA_OF_ASC_NODE":342.0368,"ARG_OF_PERICENTER":263.6461,"MEAN_ANOMALY":271.4148,"EPHEMERIS_TYPE":0,"CLASSIFICATION_TYPE":"U","NORAD_CAT_ID":21762,"ELEMENT_SET_NO":999,"REV_AT_EPOCH":11873,"BSTAR":0,"MEAN_MOTION_DOT":9.3e-7,"MEAN_MOTION_DDOT":0},{"OBJECT_NAME":"COSMOS 2172","OBJECT_ID":"1991-079A","EPOCH":"2026-03-12T23:54:53.645472","MEAN_MOTION":1.00259944,"ECCENTRICITY":0.00048902,"INCLINATION":13.3233,"RA_OF_ASC_NODE":341.0527,"ARG_OF_PERICENTER":353.7608,"MEAN_ANOMALY":178.1774,"EPHEMERIS_TYPE":0,"CLASSIFICATION_TYPE":"U","NORAD_CAT_ID":21789,"ELEMENT_SET_NO":999,"REV_AT_EPOCH":4639,"BSTAR":0,"MEAN_MOTION_DOT":-1.45e-6,"MEAN_MOTION_DDOT":0},{"OBJECT_NAME":"RADUGA 28","OBJECT_ID":"1991-087A","EPOCH":"2026-03-14T20:39:05.729472","MEAN_MOTION":1.00303838,"ECCENTRICITY":0.00033432,"INCLINATION":13.434,"RA_OF_ASC_NODE":341.7377,"ARG_OF_PERICENTER":197.0934,"MEAN_ANOMALY":337.158,"EPHEMERIS_TYPE":0,"CLASSIFICATION_TYPE":"U","NORAD_CAT_ID":21821,"ELEMENT_SET_NO":999,"REV_AT_EPOCH":12537,"BSTAR":0,"MEAN_MOTION_DOT":1.35e-6,"MEAN_MOTION_DDOT":0},{"OBJECT_NAME":"PALAPA B4","OBJECT_ID":"1992-027A","EPOCH":"2026-03-14T16:27:38.873376","MEAN_MOTION":0.99951077,"ECCENTRICITY":0.00035625,"INCLINATION":13.1455,"RA_OF_ASC_NODE":17.9821,"ARG_OF_PERICENTER":335.6555,"MEAN_ANOMALY":213.8319,"EPHEMERIS_TYPE":0,"CLASSIFICATION_TYPE":"U","NORAD_CAT_ID":21964,"ELEMENT_SET_NO":999,"REV_AT_EPOCH":4624,"BSTAR":0,"MEAN_MOTION_DOT":-2.78e-6,"MEAN_MOTION_DDOT":0},{"OBJECT_NAME":"INSAT-2A","OBJECT_ID":"1992-041A","EPOCH":"2026-03-14T12:46:40.103904","MEAN_MOTION":1.00222918,"ECCENTRICITY":0.00103886,"INCLINATION":14.5134,"RA_OF_ASC_NODE":352.565,"ARG_OF_PERICENTER":289.8473,"MEAN_ANOMALY":259.7716,"EPHEMERIS_TYPE":0,"CLASSIFICATION_TYPE":"U","NORAD_CAT_ID":22027,"ELEMENT_SET_NO":999,"REV_AT_EPOCH":12310,"BSTAR":0,"MEAN_MOTION_DOT":1.2e-7,"MEAN_MOTION_DDOT":0},{"OBJECT_NAME":"COSMOS 2209","OBJECT_ID":"1992-059A","EPOCH":"2026-03-14T01:30:19.238688","MEAN_MOTION":1.002368,"ECCENTRICITY":0.00122787,"INCLINATION":13.6502,"RA_OF_ASC_NODE":343.3357,"ARG_OF_PERICENTER":335.2552,"MEAN_ANOMALY":202.3338,"EPHEMERIS_TYPE":0,"CLASSIFICATION_TYPE":"U","NORAD_CAT_ID":22112,"ELEMENT_SET_NO":999,"REV_AT_EPOCH":12266,"BSTAR":0,"MEAN_MOTION_DOT":-2.48e-6,"MEAN_MOTION_DDOT":0},{"OBJECT_NAME":"SL-12 R/B(2)","OBJECT_ID":"1992-059D","EPOCH":"2026-03-14T03:12:38.777760","MEAN_MOTION":0.99799697,"ECCENTRICITY":0.00131848,"INCLINATION":13.882,"RA_OF_ASC_NODE":344.172,"ARG_OF_PERICENTER":328.012,"MEAN_ANOMALY":233.5402,"EPHEMERIS_TYPE":0,"CLASSIFICATION_TYPE":"U","NORAD_CAT_ID":22115,"ELEMENT_SET_NO":999,"REV_AT_EPOCH":12133,"BSTAR":0,"MEAN_MOTION_DOT":-2.76e-6,"MEAN_MOTION_DDOT":0},{"OBJECT_NAME":"HELLAS-SAT 1 (DFS 3)","OBJECT_ID":"1992-066A","EPOCH":"2026-03-12T13:23:38.580288","MEAN_MOTION":0.99737244,"ECCENTRICITY":0.0001046,"INCLINATION":14.1931,"RA_OF_ASC_NODE":7.7814,"ARG_OF_PERICENTER":272.2958,"MEAN_ANOMALY":267.0027,"EPHEMERIS_TYPE":0,"CLASSIFICATION_TYPE":"U","NORAD_CAT_ID":22175,"ELEMENT_SET_NO":999,"REV_AT_EPOCH":11958,"BSTAR":0,"MEAN_MOTION_DOT":-9.9e-7,"MEAN_MOTION_DDOT":0},{"OBJECT_NAME":"GALAXY 7 (G-7)","OBJECT_ID":"1992-072A","EPOCH":"2026-03-14T04:38:14.080128","MEAN_MOTION":0.99706266,"ECCENTRICITY":0.00070416,"INCLINATION":14.4816,"RA_OF_ASC_NODE":3.9972,"ARG_OF_PERICENTER":23.797,"MEAN_ANOMALY":163.2832,"EPHEMERIS_TYPE":0,"CLASSIFICATION_TYPE":"U","NORAD_CAT_ID":22205,"ELEMENT_SET_NO":999,"REV_AT_EPOCH":11593,"BSTAR":0,"MEAN_MOTION_DOT":-2.81e-6,"MEAN_MOTION_DDOT":0},{"OBJECT_NAME":"EKRAN 20","OBJECT_ID":"1992-074A","EPOCH":"2026-03-14T22:13:13.717344","MEAN_MOTION":1.00276968,"ECCENTRICITY":0.00032061,"INCLINATION":13.7434,"RA_OF_ASC_NODE":344.9894,"ARG_OF_PERICENTER":234.1712,"MEAN_ANOMALY":336.9524,"EPHEMERIS_TYPE":0,"CLASSIFICATION_TYPE":"U","NORAD_CAT_ID":22210,"ELEMENT_SET_NO":999,"REV_AT_EPOCH":4642,"BSTAR":0,"MEAN_MOTION_DOT":9.2e-7,"MEAN_MOTION_DDOT":0},{"OBJECT_NAME":"GORIZONT 27","OBJECT_ID":"1992-082A","EPOCH":"2026-03-14T19:13:48.908928","MEAN_MOTION":1.00184777,"ECCENTRICITY":0.00126086,"INCLINATION":13.7718,"RA_OF_ASC_NODE":344.6767,"ARG_OF_PERICENTER":20.2013,"MEAN_ANOMALY":117.4206,"EPHEMERIS_TYPE":0,"CLASSIFICATION_TYPE":"U","NORAD_CAT_ID":22245,"ELEMENT_SET_NO":999,"REV_AT_EPOCH":12617,"BSTAR":0,"MEAN_MOTION_DOT":9.9e-7,"MEAN_MOTION_DDOT":0},{"OBJECT_NAME":"COSMOS 2224","OBJECT_ID":"1992-088A","EPOCH":"2026-03-11T02:35:38.780736","MEAN_MOTION":1.00253227,"ECCENTRICITY":0.000593,"INCLINATION":13.682,"RA_OF_ASC_NODE":348.6706,"ARG_OF_PERICENTER":284.6396,"MEAN_ANOMALY":273.6232,"EPHEMERIS_TYPE":0,"CLASSIFICATION_TYPE":"U","NORAD_CAT_ID":22269,"ELEMENT_SET_NO":999,"REV_AT_EPOCH":12110,"BSTAR":0,"MEAN_MOTION_DOT":-1.78e-6,"MEAN_MOTION_DDOT":0},{"OBJECT_NAME":"SL-12 R/B(2)","OBJECT_ID":"1992-088D","EPOCH":"2026-03-14T02:19:38.775648","MEAN_MOTION":1.00076846,"ECCENTRICITY":0.00076888,"INCLINATION":13.782,"RA_OF_ASC_NODE":349.1149,"ARG_OF_PERICENTER":161.5581,"MEAN_ANOMALY":40.9692,"EPHEMERIS_TYPE":0,"CLASSIFICATION_TYPE":"U","NORAD_CAT_ID":22272,"ELEMENT_SET_NO":999,"REV_AT_EPOCH":4633,"BSTAR":0,"MEAN_MOTION_DOT":-1.65e-6,"MEAN_MOTION_DDOT":0},{"OBJECT_NAME":"TDRS 6","OBJECT_ID":"1993-003B","EPOCH":"2026-03-14T03:51:41.429088","MEAN_MOTION":1.00275205,"ECCENTRICITY":0.00051604,"INCLINATION":14.1813,"RA_OF_ASC_NODE":357.7641,"ARG_OF_PERICENTER":196.867,"MEAN_ANOMALY":349.2379,"EPHEMERIS_TYPE":0,"CLASSIFICATION_TYPE":"U","NORAD_CAT_ID":22314,"ELEMENT_SET_NO":999,"REV_AT_EPOCH":12145,"BSTAR":0,"MEAN_MOTION_DOT":-2.88e-6,"MEAN_MOTION_DDOT":0},{"OBJECT_NAME":"RADUGA 29","OBJECT_ID":"1993-013A","EPOCH":"2026-03-14T19:19:32.284992","MEAN_MOTION":1.00384335,"ECCENTRICITY":0.00034133,"INCLINATION":13.8922,"RA_OF_ASC_NODE":345.8145,"ARG_OF_PERICENTER":185.5962,"MEAN_ANOMALY":14.6606,"EPHEMERIS_TYPE":0,"CLASSIFICATION_TYPE":"U","NORAD_CAT_ID":22557,"ELEMENT_SET_NO":999,"REV_AT_EPOCH":12073,"BSTAR":0,"MEAN_MOTION_DOT":-2.08e-6,"MEAN_MOTION_DDOT":0},{"OBJECT_NAME":"HGS-4 (GALAXY 4)","OBJECT_ID":"1993-039A","EPOCH":"2026-03-14T21:20:46.548096","MEAN_MOTION":1.00264993,"ECCENTRICITY":0.00162605,"INCLINATION":14.5737,"RA_OF_ASC_NODE":355.8582,"ARG_OF_PERICENTER":32.7284,"MEAN_ANOMALY":180.4536,"EPHEMERIS_TYPE":0,"CLASSIFICATION_TYPE":"U","NORAD_CAT_ID":22694,"ELEMENT_SET_NO":999,"REV_AT_EPOCH":11805,"BSTAR":0,"MEAN_MOTION_DOT":-1.14e-6,"MEAN_MOTION_DDOT":0},{"OBJECT_NAME":"HISPASAT 1B","OBJECT_ID":"1993-048A","EPOCH":"2026-03-14T17:39:26.483616","MEAN_MOTION":0.9972451,"ECCENTRICITY":0.00087041,"INCLINATION":13.6479,"RA_OF_ASC_NODE":13.789,"ARG_OF_PERICENTER":341.6444,"MEAN_ANOMALY":206.0991,"EPHEMERIS_TYPE":0,"CLASSIFICATION_TYPE":"U","NORAD_CAT_ID":22723,"ELEMENT_SET_NO":999,"REV_AT_EPOCH":11889,"BSTAR":0,"MEAN_MOTION_DOT":-3.42e-6,"MEAN_MOTION_DDOT":0},{"OBJECT_NAME":"INSAT-2B","OBJECT_ID":"1993-048B","EPOCH":"2026-03-13T00:05:45.104064","MEAN_MOTION":0.99979487,"ECCENTRICITY":0.0016488,"INCLINATION":14.4219,"RA_OF_ASC_NODE":3.3209,"ARG_OF_PERICENTER":232.2526,"MEAN_ANOMALY":319.0606,"EPHEMERIS_TYPE":0,"CLASSIFICATION_TYPE":"U","NORAD_CAT_ID":22724,"ELEMENT_SET_NO":999,"REV_AT_EPOCH":11961,"BSTAR":0,"MEAN_MOTION_DOT":7.5e-7,"MEAN_MOTION_DDOT":0},{"OBJECT_NAME":"UFO 2 (USA 95)","OBJECT_ID":"1993-056A","EPOCH":"2026-03-14T12:03:51.710112","MEAN_MOTION":1.00268324,"ECCENTRICITY":0.0011263,"INCLINATION":11.8626,"RA_OF_ASC_NODE":4.0673,"ARG_OF_PERICENTER":350.7252,"MEAN_ANOMALY":26.9952,"EPHEMERIS_TYPE":0,"CLASSIFICATION_TYPE":"U","NORAD_CAT_ID":22787,"ELEMENT_SET_NO":999,"REV_AT_EPOCH":11760,"BSTAR":0,"MEAN_MOTION_DOT":1.31e-6,"MEAN_MOTION_DDOT":0},{"OBJECT_NAME":"RADUGA 30","OBJECT_ID":"1993-062A","EPOCH":"2026-03-14T16:51:04.955616","MEAN_MOTION":1.00276236,"ECCENTRICITY":0.00059788,"INCLINATION":14.0587,"RA_OF_ASC_NODE":347.8464,"ARG_OF_PERICENTER":322.4507,"MEAN_ANOMALY":195.7005,"EPHEMERIS_TYPE":0,"CLASSIFICATION_TYPE":"U","NORAD_CAT_ID":22836,"ELEMENT_SET_NO":999,"REV_AT_EPOCH":4505,"BSTAR":0,"MEAN_MOTION_DOT":-1.59e-6,"MEAN_MOTION_DDOT":0},{"OBJECT_NAME":"SL-12 R/B(2)","OBJECT_ID":"1993-062D","EPOCH":"2026-03-12T23:44:38.665824","MEAN_MOTION":1.00281981,"ECCENTRICITY":0.00082035,"INCLINATION":13.9975,"RA_OF_ASC_NODE":347.5895,"ARG_OF_PERICENTER":83.5836,"MEAN_ANOMALY":90.5551,"EPHEMERIS_TYPE":0,"CLASSIFICATION_TYPE":"U","NORAD_CAT_ID":22839,"ELEMENT_SET_NO":999,"REV_AT_EPOCH":11789,"BSTAR":0,"MEAN_MOTION_DOT":-5.8e-7,"MEAN_MOTION_DDOT":0}]
